OBJECT_NAME,OBJECT_ID,EPOCH,MEAN_MOTION,ECCENTRICITY,INCLINATION,RA_OF_ASC_NODE,ARG_OF_PERICENTER,MEAN_ANOMALY,EPHEMERIS_TYPE,CLASSIFICATION_TYPE,NORAD_CAT_ID,ELEMENT_SET_NO,REV_AT_EPOCH,BSTAR,MEAN_MOTION_DOT,MEAN_MOTION_DDOT
EUTELSAT HOTBIRD 13F,2022-134A,2026-07-23T06:12:12.882816,1.00271553,.00020495,0.0544,281.4142,84.8941,40.7448,0,U,54048,999,1373,0,.92E-6,0
LDPE-2,2022-144A,2026-07-23T07:50:20.851872,1.00546878,.00025912,5.6832,63.2396,104.7545,128.1083,0,U,54219,999,1220,0,-.21E-6,0
EUTELSAT HOTBIRD 13G,2022-146A,2026-07-23T06:12:12.882816,1.00271302,.00019701,0.0535,226.7570,305.9666,234.3276,0,U,54225,999,782,0,.92E-6,0
ZHONGXING-19,2022-148A,2026-07-23T07:02:21.715296,1.00272509,.00034037,0.0138,82.4373,55.6425,71.7220,0,U,54230,999,1374,0,-.77E-6,0
GALAXY 31 (G-31),2022-153A,2026-07-22T22:43:20.965152,1.00272498,.00014492,0.0160,65.1214,61.9203,33.4900,0,U,54243,999,749,0,0,0
GALAXY 32 (G-32),2022-153B,2026-07-23T05:42:30.729888,1.00272230,.00015172,0.0078,38.5533,19.5840,237.4671,0,U,54244,999,1350,0,-.17E-5,0
EUTELSAT 10B,2022-157A,2026-07-23T06:11:20.467392,1.00272096,.00019365,0.0591,96.4178,358.9583,308.4009,0,U,54259,999,1338,0,.73E-6,0
GALAXY 35 (G-35),2022-170A,2026-07-23T06:51:47.206656,1.00269698,.00021767,0.0128,57.9650,63.0763,189.8255,0,U,54741,999,1325,0,0,0
GALAXY 36 (G-36),2022-170B,2026-07-23T05:43:08.171328,1.00272135,.00027687,0.0222,123.9571,337.0003,196.7984,0,U,54742,999,1313,0,-.181E-5,0
METEOSAT-12 (MTG-I1),2022-170C,2026-07-23T06:08:20.753664,1.00270121,.00041662,0.7333,21.0463,81.1525,290.4751,0,U,54743,999,1334,0,-.4E-7,0
SHIJIAN-23 (SJ-23),2023-002A,2026-07-22T12:40:38.595072,1.00073931,.0003374,3.8057,77.8677,277.0595,259.4329,0,U,55131,999,1286,0,-.358E-5,0
APSTAR-6E,2023-005A,2026-07-21T22:05:41.114400,1.00273212,.00035901,0.0410,241.2606,325.0758,198.7590,0,U,55239,999,1903,0,-.315E-5,0
USA 342,2023-008A,2026-07-19T08:09:31.023360,1.00270942,.0000215,0.0047,62.4879,103.9152,276.9334,0,U,55263,999,1283,0,0,0
ELEKTRO-L 4,2023-016A,2026-07-22T16:55:06.184416,1.00271017,.00016563,0.1025,279.4018,260.1188,180.4676,0,U,55506,999,1269,0,-.55E-6,0
AMAZONAS NEXUS,2023-017A,2026-07-23T05:00:45.470304,1.00270243,.00045189,0.0344,44.8792,46.6263,223.6232,0,U,55508,999,740,0,-.278E-5,0
ZHONGXING-26,2023-023A,2026-07-23T06:44:09.819744,1.00267146,.00035292,0.0608,71.9222,31.6468,63.5540,0,U,55686,999,1259,0,-.349E-5,0
LUCH-5X (OLYMP-K 2),2023-031A,2026-07-22T09:54:10.634112,1.00271960,.0001404,0.0266,95.1545,179.4046,236.1308,0,U,55841,999,1229,0,.36E-6,0
GAOFEN-13 02,2023-036A,2026-07-22T22:17:30.942240,1.00273421,.00034645,1.0304,5.5441,339.5945,78.2001,0,U,55912,999,1245,0,-.214E-5,0
SES-18,2023-038A,2026-07-23T06:00:09.158400,1.00272232,.00010884,0.0600,259.7183,288.4268,99.7727,0,U,55970,999,1246,0,-.96E-6,0
SES-19,2023-038B,2026-07-23T05:30:01.927008,1.00274286,.00019172,0.0396,277.4863,204.8284,126.2602,0,U,55971,999,1245,0,.92E-6,0
INTELSAT 40E (IS-40E),2023-052A,2026-07-23T07:42:32.448960,1.00272387,.00025058,0.0157,89.8276,52.4430,183.4180,0,U,56174,999,1218,0,-.17E-5,0
VIASAT-3 F1,2023-060A,2026-07-22T19:27:04.214016,1.00272039,.00005608,0.0071,14.7978,88.8033,39.8173,0,U,56370,999,1179,0,-.182E-5,0
ARCTURUS,2023-060B,2026-07-23T02:04:38.620704,1.00590886,.00014676,2.8635,79.4903,134.3913,226.2492,0,U,56371,999,1182,0,-.357E-5,0
GS-1,2023-060C,2026-07-23T01:43:51.752928,1.00264609,.00032623,2.8146,79.4006,278.2018,58.3060,0,U,56372,999,789,0,-.218E-5,0
BEIDOU-3 G4,2023-066A,2026-07-23T06:48:24.412896,1.00270458,.00051736,0.4545,341.2296,182.3217,19.6237,0,U,56564,999,1175,0,-.276E-5,0
ARABSAT-7B (BADR-8),2023-075A,2026-07-23T06:15:50.037120,1.00271096,.00034546,0.0728,30.0634,4.3633,26.5211,0,U,56757,999,1147,0,.149E-5,0
NVS-01 (IRNSS-1J),2023-076A,2026-07-23T06:45:24.700896,1.00275296,.0002907,2.0834,242.7005,17.0278,272.1546,0,U,56759,999,1147,0,-.329E-5,0
NUSANTARA TIGA (SATRIA),2023-086A,2026-07-23T05:07:30.463392,1.00269333,.00020826,0.0366,14.5010,316.4004,192.9219,0,U,57045,999,1012,0,-.231E-5,0
H2SAT (HEINRICH HERTZ),2023-093A,2026-07-23T06:08:43.217664,1.00272464,.00007469,0.0264,106.3480,229.7173,57.8130,0,U,57213,999,1127,0,.7E-7,0
SYRACUSE 4B,2023-093B,2026-07-23T06:06:35.921952,1.00271648,.00000927,0.0189,62.8398,97.0389,226.2934,0,U,57214,999,732,0,-.49E-6,0
JUPITER 3 (ECHOSTAR 24),2023-108A,2026-07-22T10:20:04.286688,1.00271430,.00010959,0.0134,54.7872,67.6245,237.5866,0,U,57479,999,1100,0,-.146E-5,0
